[{"OBJECT_NAME":"OBJECT E","OBJECT_ID":"2024-174E","EPOCH":"2026-03-09T23:40:24.424320","MEAN_MOTION":15.26241811,"ECCENTRICITY":0.00122518,"INCLINATION":97.4515,"RA_OF_ASC_NODE":80.1669,"ARG_OF_PERICENTER":217.7524,"MEAN_ANOMALY":142.2856,"EPHEMERIS_TYPE":0,"CLASSIFICATION_TYPE":"U","NORAD_CAT_ID":61242,"ELEMENT_SET_NO":999,"REV_AT_EPOCH":8070,"BSTAR":0.00031155901,"MEAN_MOTION_DOT":8.013e-5,"MEAN_MOTION_DDOT":0},{"OBJECT_NAME":"STARLINK-32677","OBJECT_ID":"2025-032R","EPOCH":"2026-03-09T01:39:19.596384","MEAN_MOTION":15.2755691,"ECCENTRICITY":0.0001167,"INCLINATION":43.0015,"RA_OF_ASC_NODE":339.6819,"ARG_OF_PERICENTER":291.3833,"MEAN_ANOMALY":68.6894,"EPHEMERIS_TYPE":0,"CLASSIFICATION_TYPE":"U","NORAD_CAT_ID":63020,"ELEMENT_SET_NO":999,"REV_AT_EPOCH":6051,"BSTAR":0.0010516232,"MEAN_MOTION_DOT":0.00028769,"MEAN_MOTION_DDOT":0}]
